{"type": "FeatureCollection", "features": [{"type": "Feature", "properties": {"norad_id": 36828, "name": "BEIDOU-2 IGSO-1 (C06)", "group": "beidou", "lat": 37.89537533743776, "lon": -49.42247032193782, "alt_km": 35760.731772059786, "timestamp": "2025-12-06T07:31:40.501875+00:00", "meta": {"OBJECT_NAME": "BEIDOU-2 IGSO-1 (C06)", "OBJECT_ID": "2010-036A", "EPOCH": "2025-12-04T10:48:55.401408", "MEAN_MOTION": 1.0027836, "ECCENTRICITY": 0.0051251, "INCLINATION": 54.2839, "RA_OF_ASC_NODE": 164.7233, "ARG_OF_PERICENTER": 215.778, "MEAN_ANOMALY": 323.0243, "EPHEMERIS_TYPE": 0, "CLASSIFICATION_TYPE": "U", "NORAD_CAT_ID": 36828, "ELEMENT_SET_NO": 999, "REV_AT_EPOCH": 5614, "BSTAR": 0, "MEAN_MOTION_DOT": -3.3e-07, "MEAN_MOTION_DDOT": 0}, "tle": {"line1": "1 36828U 10036A   25338.45064122 -.00000033  00000+0  00000+0 0  9997", "line2": "2 36828  54.2839 164.7233 0051251 215.7780 323.0243  1.00278360 56140"}}, "geometry": {"type": "Point", "coordinates": [-49.42247032193782, 37.89537533743776]}}, {"type": "Feature", "properties": {"norad_id": 37210, "name": "BEIDOU-2 G4 (C04)", "group": "beidou", "lat": -3.1287269743785644, "lon": -11.521827888560761, "alt_km": 35786.10974938556, "timestamp": "2025-12-06T07:31:40.501899+00:00", "meta": {"OBJECT_NAME": "BEIDOU-2 G4 (C04)", "OBJECT_ID": "2010-057A", "EPOCH": "2025-12-05T05:53:56.141952", "MEAN_MOTION": 1.00271299, "ECCENTRICITY": 0.00109588, "INCLINATION": 3.1649, "RA_OF_ASC_NODE": 69.9566, "ARG_OF_PERICENTER": 189.1211, "MEAN_ANOMALY": 63.7832, "EPHEMERIS_TYPE": 0, "CLASSIFICATION_TYPE": "U", "NORAD_CAT_ID": 37210, "ELEMENT_SET_NO": 999, "REV_AT_EPOCH": 5534, "BSTAR": 0, "MEAN_MOTION_DOT": -1.01e-06, "MEAN_MOTION_DDOT": 0}, "tle": {"line1": "1 37210U 10057A   25339.24578868 -.00000101  00000+0  00000+0 0  9997", "line2": "2 37210   3.1649  69.9566 0010958 189.1211  63.7832  1.00271299 55342"}}, "geometry": {"type": "Point", "coordinates": [-11.521827888560761, -3.1287269743785644]}}, {"type": "Feature", "properties": {"norad_id": 37256, "name": "BEIDOU-2 IGSO-2 (C07)", "group": "beidou", "lat": 15.794103660390428, "lon": -71.019076803161, "alt_km": 35980.51743297868, "timestamp": "2025-12-06T07:31:40.501914+00:00", "meta": {"OBJECT_NAME": "BEIDOU-2 IGSO-2 (C07)", "OBJECT_ID": "2010-068A", "EPOCH": "2025-12-03T17:22:36.030432", "MEAN_MOTION": 1.0028871, "ECCENTRICITY": 0.00492335, "INCLINATION": 47.9043, "RA_OF_ASC_NODE": 274.2613, "ARG_OF_PERICENTER": 216.1442, "MEAN_ANOMALY": 310.2369, "EPHEMERIS_TYPE": 0, "CLASSIFICATION_TYPE": "U", "NORAD_CAT_ID": 37256, "ELEMENT_SET_NO": 999, "REV_AT_EPOCH": 5483, "BSTAR": 0, "MEAN_MOTION_DOT": -2.25e-06, "MEAN_MOTION_DDOT": 0}, "tle": {"line1": "1 37256U 10068A   25337.72402813 -.00000225  00000+0  00000+0 0  9993", "line2": "2 37256  47.9043 274.2613 0049233 216.1442 310.2369  1.00288710 54839"}}, "geometry": {"type": "Point", "coordinates": [-71.019076803161, 15.794103660390428]}}, {"type": "Feature", "properties": {"norad_id": 37384, "name": "BEIDOU-2 IGSO-3 (C08)", "group": "beidou", "lat": -58.33911050796611, "lon": -79.06768514783593, "alt_km": 35735.28645333029, "timestamp": "2025-12-06T07:31:40.501927+00:00", "meta": {"OBJECT_NAME": "BEIDOU-2 IGSO-3 (C08)", "OBJECT_ID": "2011-013A", "EPOCH": "2025-12-03T14:52:09.520896", "MEAN_MOTION": 1.00272128, "ECCENTRICITY": 0.00353922, "INCLINATION": 62.1308, "RA_OF_ASC_NODE": 42.005, "ARG_OF_PERICENTER": 186.5359, "MEAN_ANOMALY": 174.9093, "EPHEMERIS_TYPE": 0, "CLASSIFICATION_TYPE": "U", "NORAD_CAT_ID": 37384, "ELEMENT_SET_NO": 999, "REV_AT_EPOCH": 5370, "BSTAR": 0, "MEAN_MOTION_DOT": -1.99e-06, "MEAN_MOTION_DDOT": 0}, "tle": {"line1": "1 37384U 11013A   25337.61955464 -.00000199  00000+0  00000+0 0  9999", "line2": "2 37384  62.1308  42.0050 0035392 186.5359 174.9093  1.00272128 53708"}}, "geometry": {"type": "Point", "coordinates": [-79.06768514783593, -58.33911050796611]}}, {"type": "Feature", "properties": {"norad_id": 37763, "name": "BEIDOU-2 IGSO-4 (C09)", "group": "beidou", "lat": 48.30544988762856, "lon": -65.75211975447245, "alt_km": 36053.50070446714, "timestamp": "2025-12-06T07:31:40.501940+00:00", "meta": {"OBJECT_NAME": "BEIDOU-2 IGSO-4 (C09)", "OBJECT_ID": "2011-038A", "EPOCH": "2025-12-01T12:32:09.960864", "MEAN_MOTION": 1.00284074, "ECCENTRICITY": 0.01487808, "INCLINATION": 54.5808, "RA_OF_ASC_NODE": 167.4476, "ARG_OF_PERICENTER": 230.2031, "MEAN_ANOMALY": 315.0387, "EPHEMERIS_TYPE": 0, "CLASSIFICATION_TYPE": "U", "NORAD_CAT_ID": 37763, "ELEMENT_SET_NO": 999, "REV_AT_EPOCH": 5266, "BSTAR": 0, "MEAN_MOTION_DOT": 1.01e-06, "MEAN_MOTION_DDOT": 0}, "tle": {"line1": "1 37763U 11038A   25335.52233751  .00000101  00000+0  00000+0 0  9995", "line2": "2 37763  54.5808 167.4476 0148780 230.2031 315.0387  1.00284074 52664"}}, "geometry": {"type": "Point", "coordinates": [-65.75211975447245, 48.30544988762856]}}, {"type": "Feature", "properties": {"norad_id": 37948, "name": "BEIDOU-2 IGSO-5 (C10)", "group": "beidou", "lat": 5.674366675164492, "lon": -80.97696195647154, "alt_km": 36162.35813410332, "timestamp": "2025-12-06T07:31:40.501953+00:00", "meta": {"OBJECT_NAME": "BEIDOU-2 IGSO-5 (C10)", "OBJECT_ID": "2011-073A", "EPOCH": "2025-12-04T19:17:55.815936", "MEAN_MOTION": 1.00292045, "ECCENTRICITY": 0.01106348, "INCLINATION": 48.036, "RA_OF_ASC_NODE": 273.956, "ARG_OF_PERICENTER": 222.1589, "MEAN_ANOMALY": 319.7219, "EPHEMERIS_TYPE": 0, "CLASSIFICATION_TYPE": "U", "NORAD_CAT_ID": 37948, "ELEMENT_SET_NO": 999, "REV_AT_EPOCH": 5118, "BSTAR": 0, "MEAN_MOTION_DOT": -1.77e-06, "MEAN_MOTION_DDOT": 0}, "tle": {"line1": "1 37948U 11073A   25338.80411824 -.00000177  00000+0  00000+0 0  9996", "line2": "2 37948  48.0360 273.9560 0110634 222.1589 319.7219  1.00292045 51180"}}, "geometry": {"type": "Point", "coordinates": [-80.97696195647154, 5.674366675164492]}}, {"type": "Feature", "properties": {"norad_id": 38091, "name": "BEIDOU-2 G5 (C05)", "group": "beidou", "lat": 0.18148895896946485, "lon": -113.11696020715634, "alt_km": 35751.50007722006, "timestamp": "2025-12-06T07:31:40.501965+00:00", "meta": {"OBJECT_NAME": "BEIDOU-2 G5 (C05)", "OBJECT_ID": "2012-008A", "EPOCH": "2025-12-05T01:59:26.111904", "MEAN_MOTION": 1.00272818, "ECCENTRICITY": 0.00124323, "INCLINATION": 3.089, "RA_OF_ASC_NODE": 70.7304, "ARG_OF_PERICENTER": 225.8222, "MEAN_ANOMALY": 226.162, "EPHEMERIS_TYPE": 0, "CLASSIFICATION_TYPE": "U", "NORAD_CAT_ID": 38091, "ELEMENT_SET_NO": 999, "REV_AT_EPOCH": 5042, "BSTAR": 0, "MEAN_MOTION_DOT": 6.8e-07, "MEAN_MOTION_DDOT": 0}, "tle": {"line1": "1 38091U 12008A   25339.08294111  .00000068  00000+0  00000+0 0  9992", "line2": "2 38091   3.0890  70.7304 0012432 225.8222 226.1620  1.00272818 50428"}}, "geometry": {"type": "Point", "coordinates": [-113.11696020715634, 0.18148895896946485]}}, {"type": "Feature", "properties": {"norad_id": 38250, "name": "BEIDOU-2 M3 (C11)", "group": "beidou", "lat": -51.947000741110045, "lon": -108.44418356401457, "alt_km": 21467.59122638537, "timestamp": "2025-12-06T07:31:40.501977+00:00", "meta": {"OBJECT_NAME": "BEIDOU-2 M3 (C11)", "OBJECT_ID": "2012-018A", "EPOCH": "2025-12-04T06:32:53.001888", "MEAN_MOTION": 1.86229694, "ECCENTRICITY": 0.0024462, "INCLINATION": 55.9274, "RA_OF_ASC_NODE": 311.4423, "ARG_OF_PERICENTER": 273.73, "MEAN_ANOMALY": 85.9745, "EPHEMERIS_TYPE": 0, "CLASSIFICATION_TYPE": "U", "NORAD_CAT_ID": 38250, "ELEMENT_SET_NO": 999, "REV_AT_EPOCH": 9231, "BSTAR": 0, "MEAN_MOTION_DOT": -6.8e-07, "MEAN_MOTION_DDOT": 0}, "tle": {"line1": "1 38250U 12018A   25338.27283567 -.00000068  00000+0  00000+0 0  9994", "line2": "2 38250  55.9274 311.4423 0024462 273.7300  85.9745  1.86229694 92310"}}, "geometry": {"type": "Point", "coordinates": [-108.44418356401457, -51.947000741110045]}}, {"type": "Feature", "properties": {"norad_id": 38251, "name": "BEIDOU-2 M4 (C12)", "group": "beidou", "lat": -21.4295546502204, "lon": -64.87478217842532, "alt_km": 21507.22405253635, "timestamp": "2025-12-06T07:31:40.501989+00:00", "meta": {"OBJECT_NAME": "BEIDOU-2 M4 (C12)", "OBJECT_ID": "2012-018B", "EPOCH": "2025-12-04T04:55:01.467840", "MEAN_MOTION": 1.86229385, "ECCENTRICITY": 0.0015607, "INCLINATION": 55.8289, "RA_OF_ASC_NODE": 310.6742, "ARG_OF_PERICENTER": 276.8686, "MEAN_ANOMALY": 82.9379, "EPHEMERIS_TYPE": 0, "CLASSIFICATION_TYPE": "U", "NORAD_CAT_ID": 38251, "ELEMENT_SET_NO": 999, "REV_AT_EPOCH": 9231, "BSTAR": 0, "MEAN_MOTION_DOT": -6.8e-07, "MEAN_MOTION_DDOT": 0}, "tle": {"line1": "1 38251U 12018B   25338.20487810 -.00000068  00000+0  00000+0 0  9995", "line2": "2 38251  55.8289 310.6742 0015607 276.8686  82.9379  1.86229385 92310"}}, "geometry": {"type": "Point", "coordinates": [-64.87478217842532, -21.4295546502204]}}, {"type": "Feature", "properties": {"norad_id": 38775, "name": "BEIDOU-2 M6 (C14)", "group": "beidou", "lat": 10.282059905660743, "lon": -117.6344995298843, "alt_km": 21557.440032952843, "timestamp": "2025-12-06T07:31:40.502000+00:00", "meta": {"OBJECT_NAME": "BEIDOU-2 M6 (C14)", "OBJECT_ID": "2012-050B", "EPOCH": "2025-12-03T09:05:34.856160", "MEAN_MOTION": 1.86230686, "ECCENTRICITY": 0.00108899, "INCLINATION": 56.3706, "RA_OF_ASC_NODE": 69.3782, "ARG_OF_PERICENTER": 346.3356, "MEAN_ANOMALY": 13.638, "EPHEMERIS_TYPE": 0, "CLASSIFICATION_TYPE": "U", "NORAD_CAT_ID": 38775, "ELEMENT_SET_NO": 999, "REV_AT_EPOCH": 8966, "BSTAR": 0, "MEAN_MOTION_DOT": -5e-07, "MEAN_MOTION_DDOT": 0}, "tle": {"line1": "1 38775U 12050B   25337.37887565 -.00000050  00000+0  00000+0 0  9991", "line2": "2 38775  56.3706  69.3782 0010889 346.3356  13.6380  1.86230686 89660"}}, "geometry": {"type": "Point", "coordinates": [-117.6344995298843, 10.282059905660743]}}]}